[{"OBJECT_NAME":"FLORIPASAT-1","OBJECT_ID":"2019-093G","EPOCH":"2026-03-09T23:35:55.317696","MEAN_MOTION":15.02721611,"ECCENTRICITY":0.00131238,"INCLINATION":97.7908,"RA_OF_ASC_NODE":162.596,"ARG_OF_PERICENTER":52.6692,"MEAN_ANOMALY":307.5727,"EPHEMERIS_TYPE":0,"CLASSIFICATION_TYPE":"U","NORAD_CAT_ID":44885,"ELEMENT_SET_NO":999,"REV_AT_EPOCH":33774,"BSTAR":0.00066057159,"MEAN_MOTION_DOT":8.782e-5,"MEAN_MOTION_DDOT":0},{"OBJECT_NAME":"STARLINK-5769","OBJECT_ID":"2023-020S","EPOCH":"2026-03-09T03:37:17.065344","MEAN_MOTION":15.02534687,"ECCENTRICITY":0.00018039,"INCLINATION":43.0038,"RA_OF_ASC_NODE":355.0025,"ARG_OF_PERICENTER":269.5045,"MEAN_ANOMALY":90.559,"EPHEMERIS_TYPE":0,"CLASSIFICATION_TYPE":"U","NORAD_CAT_ID":55585,"ELEMENT_SET_NO":999,"REV_AT_EPOCH":16898,"BSTAR":-3.439795e-6,"MEAN_MOTION_DOT":-2.5e-6,"MEAN_MOTION_DDOT":0}]
